[{"OBJECT_NAME":"STARLINK-1234","OBJECT_ID":"2020-012N","EPOCH":"2026-03-09T21:47:04.288992","MEAN_MOTION":15.62427923,"ECCENTRICITY":0.00038198,"INCLINATION":53.0447,"RA_OF_ASC_NODE":324.2373,"ARG_OF_PERICENTER":306.6742,"MEAN_ANOMALY":53.392,"EPHEMERIS_TYPE":0,"CLASSIFICATION_TYPE":"U","NORAD_CAT_ID":45190,"ELEMENT_SET_NO":999,"REV_AT_EPOCH":33591,"BSTAR":0.0016464454,"MEAN_MOTION_DOT":0.0015115,"MEAN_MOTION_DDOT":0},{"OBJECT_NAME":"STARLINK-1905","OBJECT_ID":"2020-074H","EPOCH":"2026-03-10T00:00:02.999808","MEAN_MOTION":15.63325123,"ECCENTRICITY":6.855e-5,"INCLINATION":53.046,"RA_OF_ASC_NODE":282.151,"ARG_OF_PERICENTER":321.681,"MEAN_ANOMALY":191.3519,"EPHEMERIS_TYPE":0,"CLASSIFICATION_TYPE":"U","NORAD_CAT_ID":46746,"ELEMENT_SET_NO":999,"REV_AT_EPOCH":594,"BSTAR":0.0023463492,"MEAN_MOTION_DOT":0.00225364,"MEAN_MOTION_DDOT":0}]
